FENGYUN 1C DEB          
1 32133U 99025CSB 17344.62864046  .00000031  00000-0  37424-4 0  9990
2 32133  98.7464  52.3367 0035804 233.6723 126.1144 14.16217672536767
